NORAD_CAT_ID,OBJECT_NAME,OBJECT_TYPE,EPOCH,MEAN_MOTION,ECCENTRICITY,INCLINATION,RA_OF_ASC_NODE,ARG_OF_PERICENTER,MEAN_ANOMALY,BSTAR,MEAN_MOTION_DOT,MEAN_MOTION_DDOT,TLE_LINE0,TLE_LINE1,TLE_LINE2,SEMIMAJOR_AXIS,PERIOD,APOGEE,PERIGEE,DECAYED
51144.0,STARLINK-3185,PAYLOAD,2022-12-16 19:56:32,15.08792562,0.0001948,53.2163,191.2402,22.6962,337.4116,0.00053924,8.293e-05,0.0,0 STARLINK-3185,1 51144U 22005AS  22350.83093014  .00008293  00000-0  53924-3 0  9992,2 51144  53.2163 191.2402 0001948  22.6962 337.4116 15.08792562 50774,6918.025,95.441,541.238,538.543,0.0
51144.0,STARLINK-3185,PAYLOAD,2022-12-16 23:07:18,15.08819825,0.0002157,53.2161,190.6452,18.9716,341.1356,0.0002084,3.028e-05,0.0,0 STARLINK-3185,1 51144U 22005AS  22350.96340674  .00003028  00000-0  20840-3 0  9995,2 51144  53.2161 190.6452 0002157  18.9716 341.1356 15.08819825 51904,6917.941999999999,95.439,541.299,538.315,0.0
51144.0,STARLINK-3185,PAYLOAD,2022-12-17 07:04:13,15.08835302,0.0002926,53.2161,189.1586,28.7682,331.3471,4.386e-05,4.09e-06,0.0,0 STARLINK-3185,1 51144U 22005AS  22351.29460552  .00000409  00000-0  43860-4 0  9998,2 51144  53.2161 189.1586 0002926  28.7682 331.3471 15.08835302 50849,6917.895,95.438,541.784,537.736,0.0
51144.0,STARLINK-3185,PAYLOAD,2022-12-17 19:47:19,15.08828625,0.0002997,53.2164,186.7801,28.5838,331.5318,-6.1355e-05,-1.265e-05,0.0,0 STARLINK-3185,1 51144U 22005AS  22351.82453500 -.00001265  00000-0 -61355-4 0  9994,2 51144  53.2164 186.7801 0002997  28.5838 331.5318 15.08828625 52039,6917.915,95.438,541.8530000000002,537.707,0.0
51144.0,STARLINK-3185,PAYLOAD,2022-12-18 13:16:34,15.08847937,0.0003119,53.2163,183.5086,28.6065,331.5098,-0.00031628,-5.320000000000001e-05,0.0,0 STARLINK-3185,1 51144U 22005AS  22352.55317297 -.00005320  00000-0 -31628-3 0  9992,2 51144  53.2163 183.5086 0003119  28.6065 331.5098 15.08847937 52142,6917.856,95.437,541.879,537.563,0.0
51144.0,STARLINK-3185,PAYLOAD,2022-12-18 16:27:21,15.08826072,0.0002981,53.2164,182.914,28.8459,331.2697,1.0617e-06,-2.72e-06,0.0,0 STARLINK-3185,1 51144U 22005AS  22352.68566029 -.00000272  00000-0  10617-5 0  9992,2 51144  53.2164 182.9140 0002981  28.8459 331.2697 15.08826072 52163,6917.9230000000025,95.438,541.85,537.726,0.0
51144.0,STARLINK-3185,PAYLOAD,2022-12-18 19:38:07,15.08826033,0.0002986,53.2164,182.3191,28.8133,331.3024,4.3265e-06,-2.2e-06,0.0,0 STARLINK-3185,1 51144U 22005AS  22352.81814132 -.00000220  00000-0  43265-5 0  9996,2 51144  53.2164 182.3191 0002986  28.8133 331.3024 15.08826033 51078,6917.9230000000025,95.438,541.854,537.722,0.0
51144.0,STARLINK-3185,PAYLOAD,2022-12-18 22:48:53,15.08826559,0.0002997,53.2163,181.7244,29.2292,330.8868,8.825e-06,-1.48e-06,0.0,0 STARLINK-3185,1 51144U 22005AS  22352.95062204 -.00000148  00000-0  88250-5 0  9998,2 51144  53.2163 181.7244 0002997  29.2292 330.8868 15.08826559 51097,6917.920999999999,95.438,541.86,537.7130000000002,0.0
51144.0,STARLINK-3185,PAYLOAD,2022-12-19 19:28:54,15.08829879,0.0003029,53.216,177.8582,29.0694,331.0466,9.927e-05,1.291e-05,0.0,0 STARLINK-3185,1 51144U 22005AS  22353.81174385  .00001291  00000-0  99270-4 0  9990,2 51144  53.2160 177.8582 0003029  29.0694 331.0466 15.08829879 52339,6917.911,95.438,541.872,537.681,0.0
51144.0,STARLINK-3185,PAYLOAD,2022-12-20 05:01:13,15.08832286,0.0003058,53.2162,176.0742,30.783,329.3341,0.0001402,1.943e-05,0.0,0 STARLINK-3185,1 51144U 22005AS  22354.20918470  .00001943  00000-0  14020-3 0  9998,2 51144  53.2162 176.0742 0003058  30.7830 329.3341 15.08832286 51284,6917.904,95.438,541.884,537.653,0.0
51144.0,STARLINK-3185,PAYLOAD,2022-12-21 04:52:00,15.08842863,0.0003119,53.2164,171.6137,33.0598,327.0589,0.00015245,2.139e-05,0.0,0 STARLINK-3185,1 51144U 22005AS  22355.20278074  .00002139  00000-0  15245-3 0  9996,2 51144  53.2164 171.6137 0003119  33.0598 327.0589 15.08842863 52541,6917.871999999999,95.437,541.894,537.5790000000002,0.0
51144.0,STARLINK-3185,PAYLOAD,2022-12-21 22:21:14,15.0885279,0.0003126,53.2167,168.3427,34.7815,325.3381,0.00016334,2.313e-05,0.0,0 STARLINK-3185,1 51144U 22005AS  22355.93141221  .00002313  00000-0  16334-3 0  9993,2 51144  53.2167 168.3427 0003126  34.7815 325.3381 15.08852790 52650,6917.840999999999,95.437,541.869,537.544,0.0
51144.0,STARLINK-3185,PAYLOAD,2022-12-22 23:47:24,15.088475099999998,0.0003195,53.2164,163.5845,36.6028,323.5182,3.2335e-05,2.26e-06,0.0,0 STARLINK-3185,1 51144U 22005AS  22356.99125273  .00000226  00000-0  32335-4 0  9990,2 51144  53.2164 163.5845 0003195  36.6028 323.5182 15.08847510 52812,6917.857,95.437,541.933,537.512,0.0
51144.0,STARLINK-3185,PAYLOAD,2022-12-23 15:41:14,15.08854674,0.0003253,53.2161,160.6112,37.9618,322.1603,5.547e-05,5.95e-06,0.0,0 STARLINK-3185,1 51144U 22005AS  22357.65364253  .00000595  00000-0  55470-4 0  9991,2 51144  53.2161 160.6112 0003253  37.9618 322.1603 15.08854674 51808,6917.8359999999975,95.437,541.951,537.45,0.0
51144.0,STARLINK-3185,PAYLOAD,2022-12-23 17:16:37,15.08856098,0.0002939,53.2174,160.3127,37.0463,323.0732,2.1516e-05,5.4e-07,0.0,0 STARLINK-3185,1 51144U 22005AS  22357.71988117  .00000054  00000-0  21516-4 0  9993,2 51144  53.2174 160.3127 0002939  37.0463 323.0732 15.08856098 52923,6917.831,95.437,541.729,537.663,0.0
51144.0,STARLINK-3185,PAYLOAD,2022-12-24 04:24:20,15.0884303,0.0003204,53.2172,158.2332,36.1798,323.941,-5.7909e-05,-1.21e-05,0.0,0 STARLINK-3185,1 51144U 22005AS  22358.18357016 -.00001210  00000-0 -57909-4 0  9995,2 51144  53.2172 158.2332 0003204  36.1798 323.9410 15.08843030 52993,6917.871,95.437,541.953,537.52,0.0
51144.0,STARLINK-3185,PAYLOAD,2022-12-24 10:45:52,15.08841405,0.0003184,53.2172,157.0468,32.1503,327.9683,-8.7261e-06,-4.28e-06,0.0,0 STARLINK-3185,1 51144U 22005AS  22358.44852849 -.00000428  00000-0 -87261-5 0  9993,2 51144  53.2172 157.0468 0003184  32.1503 327.9683 15.08841405 51929,6917.876,95.437,541.944,537.538,0.0
51144.0,STARLINK-3185,PAYLOAD,2022-12-24 17:07:25,15.08843209,0.0003839,53.2155,155.8548,37.2469,322.8788,3.4001e-05,2.52e-06,0.0,0 STARLINK-3185,1 51144U 22005AS  22358.71348736  .00000252  00000-0  34001-4 0  9994,2 51144  53.2155 155.8548 0003839  37.2469 322.8788 15.08843209 51967,6917.871,95.437,542.391,537.08,0.0
51144.0,STARLINK-3185,PAYLOAD,2022-12-25 04:15:06,15.08846316,0.0003344,53.2156,153.7726,37.3435,322.7789,5.2448e-05,5.46e-06,0.0,0 STARLINK-3185,1 51144U 22005AS  22359.17716164  .00000546  00000-0  52448-4 0  9990,2 51144  53.2156 153.7726 0003344  37.3435 322.7789 15.08846316 53142,6917.861,95.437,542.039,537.413,0.0
51144.0,STARLINK-3185,PAYLOAD,2022-12-25 10:36:39,15.08840657,0.0003294,53.217,152.5826,39.4337,320.6894,-7.1131e-06,-4.02e-06,0.0,0 STARLINK-3185,1 51144U 22005AS  22359.44212639 -.00000402  00000-0 -71131-5 0  9992,2 51144  53.2170 152.5826 0003294  39.4337 320.6894 15.08840657 53184,6917.878000000002,95.438,542.0219999999998,537.465,0.0
51144.0,STARLINK-3185,PAYLOAD,2022-12-25 16:58:13,15.08796475,0.0003563999999999,53.2167,151.3936,43.8026,316.3249,0.00056796,8.752e-05,0.0,0 STARLINK-3185,1 51144U 22005AS  22359.70709498  .00008752  00000-0  56796-3 0  9997,2 51144  53.2167 151.3936 0003564  43.8026 316.3249 15.08796475 53222,6918.013000000001,95.44,542.344,537.413,0.0
51144.0,STARLINK-3185,PAYLOAD,2022-12-25 20:08:58,15.08838827,0.0003294,53.2173,150.7991,39.381,320.7421,-4.8789e-05,-1.065e-05,0.0,0 STARLINK-3185,1 51144U 22005AS  22359.83956838 -.00001065  00000-0 -48789-4 0  9999,2 51144  53.2173 150.7991 0003294  39.3810 320.7421 15.08838827 52132,6917.884,95.438,542.028,537.47,0.0
51144.0,STARLINK-3185,PAYLOAD,2022-12-26 12:02:49,15.088353,0.0003295,53.218,147.8259,40.5353,319.5884,0.00011661,1.567e-05,0.0,0 STARLINK-3185,1 51144U 22005AS  22360.50196755  .00001567  00000-0  11661-3 0  9992,2 51144  53.2180 147.8259 0003295  40.5353 319.5884 15.08835300 52234,6917.895,95.438,542.039,537.48,0.0
51144.0,STARLINK-3185,PAYLOAD,2022-12-26 19:59:46,15.08832763,0.0003266,53.2181,146.3392,40.7501,319.3735,-3.3128e-05,-8.16e-06,0.0,0 STARLINK-3185,1 51144U 22005AS  22360.83317417 -.00000816  00000-0 -33128-4 0  9999,2 51144  53.2181 146.3392 0003266  40.7501 319.3735 15.08832763 52280,6917.903,95.438,542.0269999999998,537.508,0.0
51144.0,STARLINK-3185,PAYLOAD,2022-12-27 02:21:17,15.08868022,0.0003105,53.217,145.1487,40.9183,319.2042,-0.00036067,-6.029e-05,0.0,0 STARLINK-3185,1 51144U 22005AS  22361.09811904 -.00006029  00000-0 -36067-3 0  9994,2 51144  53.2170 145.1487 0003105  40.9183 319.2042 15.08868022 53435,6917.795,95.436,541.808,537.512,0.0
51144.0,STARLINK-3185,PAYLOAD,2022-12-27 10:18:13,15.08840039,0.0003228,53.2167,143.6613,37.8884,322.2335,0.00014609,2.037e-05,0.0,0 STARLINK-3185,1 51144U 22005AS  22361.42932387  .00002037  00000-0  14609-3 0  9991,2 51144  53.2167 143.6613 0003228  37.8884 322.2335 15.08840039 53486,6917.88,95.438,541.9780000000002,537.512,0.0
51144.0,STARLINK-3185,PAYLOAD,2022-12-27 16:39:45,15.08847056,0.000325,53.2168,142.4721,38.6651,321.4574,0.00019179,2.766e-05,0.0,0 STARLINK-3185,1 51144U 22005AS  22361.69427851  .00002766  00000-0  19179-3 0  9991,2 51144  53.2168 142.4721 0003250  38.6651 321.4574 15.08847056 52414,6917.859,95.437,541.972,537.476,0.0
51144.0,STARLINK-3185,PAYLOAD,2022-12-28 11:44:24,15.08834744,0.0003301,53.216,138.903,37.0109,323.111,7.8815e-05,9.66e-06,0.0,0 STARLINK-3185,1 51144U 22005AS  22362.48916923  .00000966  00000-0  78815-4 0  9995,2 51144  53.2160 138.9030 0003301  37.0109 323.1110 15.08834744 53648,6917.896,95.438,542.045,537.4780000000002,0.0
51144.0,STARLINK-3185,PAYLOAD,2022-12-28 19:41:19,15.08835224,0.000342,53.2161,137.416,37.4316,322.6913,7.4667e-05,9e-06,0.0,0 STARLINK-3185,1 51144U 22005AS  22362.82037027  .00000900  00000-0  74667-4 0  9991,2 51144  53.2161 137.4160 0003420  37.4316 322.6913 15.08835224 52584,6917.895,95.438,542.126,537.394,0.0
